      2.10          N: GNSS NAV DATA                        RINEX VERSION / TYPE
fic2rin                                 06/18/2021 00:17:09 PGM / RUN BY / DATE
                                                            END OF HEADER
30 21  6 17  9 59 44.0-4.400191828609e-04-4.661160346586e-12 0.000000000000e+00
    5.000000000000e+01 4.159375000000e+01 5.378795476993e-09 3.115098085116e+00
    2.207234501839e-06 5.292949150316e-03 7.657334208488e-06 5.153687915802e+03
    3.815840000000e+05-3.352761268616e-08-6.571668486542e-01-3.911554813385e-08
    9.367623910679e-01 2.235937500000e+02-2.759951422941e+00-8.334990042934e-09
    2.853690296227e-10 1.000000000000e+00 2.162000000000e+03 0.000000000000e+00
    2.400000000000e+00 0.000000000000e+00 3.725290298462e-09 5.000000000000e+01
    3.744000000000e+05 4.000000000000e+00
 1 21  6 17 10  0  0.0 6.558327004313e-04-1.170974428533e-11 0.000000000000e+00
    4.100000000000e+01 2.765625000000e+01 3.878375835635e-09-2.419941707257e+00
    1.505017280579e-06 1.099663367495e-02 5.124136805534e-06 5.153682384491e+03
    3.816000000000e+05 5.029141902924e-08 2.469846473076e+00-6.519258022308e-08
    9.846804395270e-01 2.940312500000e+02 8.588883183174e-01-7.772823769309e-09
    2.089372745047e-10 1.000000000000e+00 2.162000000000e+03 0.000000000000e+00
    2.400000000000e+00 0.000000000000e+00 5.122274160385e-09 4.100000000000e+01
    3.744000000000e+05 4.000000000000e+00
 5 21  6 17 10  0  0.0-4.520127549767e-05-1.136868377216e-12 0.000000000000e+00
    7.200000000000e+01-6.584375000000e+01 4.657694011651e-09 2.568744145933e-01
   -3.278255462646e-06 6.146697560325e-03 5.023553967476e-06 5.153892307281e+03
    3.816000000000e+05-9.126961231232e-08-2.813403550053e+00 1.695007085800e-07
    9.568195918794e-01 2.803750000000e+02 9.079651149287e-01-8.375706024632e-09
   -2.214377952016e-11 1.000000000000e+00 2.162000000000e+03 0.000000000000e+00
    2.400000000000e+00 0.000000000000e+00-1.117587089539e-08 7.200000000000e+01
    3.744000000000e+05 4.000000000000e+00
 3 21  6 17 10  0  0.0-1.944056712091e-04-1.068656274583e-11 0.000000000000e+00
    4.000000000000e+01-6.968750000000e+01 4.227318941945e-09 2.825087632445e+00
   -3.594905138016e-06 3.615415073000e-03 5.640089511871e-06 5.153580478668e+03
    3.816000000000e+05 1.490116119385e-08-2.776290137617e+00-2.048909664154e-08
    9.698479189730e-01 2.749687500000e+02 8.568875364625e-01-8.019262605905e-09
    2.071514858337e-11 1.000000000000e+00 2.162000000000e+03 0.000000000000e+00
    2.400000000000e+00 0.000000000000e+00 1.862645149231e-09 4.000000000000e+01
    3.744000000000e+05 4.000000000000e+00
12 21  6 17 10  0  0.0-5.616573616862e-05-5.229594535194e-12 0.000000000000e+00
    2.700000000000e+01 7.656250000000e+00 4.461971573312e-09 2.513127053669e+00
    2.030283212662e-07 8.360779145733e-03 6.571412086487e-06 5.153720697403e+03
    3.816000000000e+05 2.048909664154e-08 4.363385365772e-01-1.285225152969e-07
    9.736258039713e-01 2.542500000000e+02 1.223806500842e+00-7.896043187607e-09
   -4.171602335410e-10 1.000000000000e+00 2.162000000000e+03 0.000000000000e+00
    2.400000000000e+00 0.000000000000e+00-1.257285475731e-08 2.700000000000e+01
    3.744000000000e+05 4.000000000000e+00
 6 21  6 17 10  0  0.0 2.802303060889e-05 4.661160346586e-12 0.000000000000e+00
    4.000000000000e+01 3.587500000000e+01 4.033382292276e-09-2.205324575226e+00
    1.801177859306e-06 2.139978460036e-03 5.317851901054e-06 5.153783819199e+03
    3.816000000000e+05 4.842877388000e-08 2.461595836010e+00 5.029141902924e-08
    9.841248802943e-01 2.916875000000e+02-9.679792503240e-01-8.058192798932e-09
    1.585780339831e-10 1.000000000000e+00 2.162000000000e+03 0.000000000000e+00
    2.400000000000e+00 0.000000000000e+00 4.190951585770e-09 4.000000000000e+01
    3.744000000000e+05 4.000000000000e+00
 8 21  6 17 10  0  0.0-2.540601417422e-05-1.477928890381e-12 0.000000000000e+00
    9.500000000000e+01 2.809375000000e+01 4.244819670920e-09-1.578124940724e-01
    1.315027475357e-06 6.352076889016e-03 8.352100849152e-06 5.153616979599e+03
    3.816000000000e+05 9.872019290924e-08 1.394318956878e+00 4.284083843231e-08
    9.670342096336e-01 2.229062500000e+02 5.979549936256e-02-8.047120909172e-09
   -2.950122884460e-10 1.000000000000e+00 2.162000000000e+03 0.000000000000e+00
    2.400000000000e+00 0.000000000000e+00 5.122274160385e-09 9.500000000000e+01
    3.744000000000e+05 4.000000000000e+00
 7 21  6 17 10  0  0.0 1.803874038160e-04 9.663381206337e-12 0.000000000000e+00
    5.600000000000e+01 4.187500000000e+01 4.949849038224e-09-3.008986445758e+00
    1.952052116394e-06 1.506489515305e-02 7.785856723785e-06 5.153752613068e+03
    3.816000000000e+05 3.352761268616e-08-6.740197015003e-01-2.384185791016e-07
    9.515435763636e-01 2.264375000000e+02-2.325305688853e+00-8.001047561461e-09
    2.785830326729e-10 1.000000000000e+00 2.162000000000e+03 0.000000000000e+00
    2.400000000000e+00 0.000000000000e+00-1.117587089539e-08 5.600000000000e+01
    3.744000000000e+05 4.000000000000e+00
 4 21  6 17 10  0  0.0-2.001062966883e-04-1.136868377216e-12 0.000000000000e+00
    8.100000000000e+01-2.950000000000e+01 4.430541692702e-09-7.916536683986e-01
   -1.559033989906e-06 1.257112715393e-03 1.016072928905e-05 5.153733854294e+03
    3.816000000000e+05 2.980232238770e-08-1.695719836006e+00 3.725290298462e-09
    9.601639849926e-01 1.800937500000e+02-2.924910296700e+00-7.935330538369e-09
    2.064371703653e-10 1.000000000000e+00 2.162000000000e+03 0.000000000000e+00
    2.400000000000e+00 0.000000000000e+00-4.190951585770e-09 3.370000000000e+02
    3.744000000000e+05 4.000000000000e+00
31 21  6 17 10  0  0.0-1.235520467162e-04-2.160049916711e-12 0.000000000000e+00
    3.200000000000e+01 3.681250000000e+01 4.878060333650e-09 2.717108408460e+00
    1.959502696991e-06 1.003311399836e-02 7.979571819305e-06 5.153550308228e+03
    3.816000000000e+05-2.235174179077e-07-6.568845215570e-01-9.872019290924e-08
    9.558626503504e-01 2.241250000000e+02 2.638634369598e-01-7.994975879979e-09
    2.907263956356e-10 1.000000000000e+00 2.162000000000e+03 0.000000000000e+00
    2.400000000000e+00 0.000000000000e+00-1.303851604462e-08 3.200000000000e+01
    3.744000000000e+05 4.000000000000e+00
27 21  6 17 10  0  0.0-1.485338434577e-04-6.139089236967e-12 0.000000000000e+00
    3.200000000000e+01 2.975000000000e+01 4.147672767219e-09-2.475740855287e-01
    1.529231667519e-06 9.449470671825e-03 8.560717105865e-06 5.153688322067e+03
    3.816000000000e+05 3.352761268616e-08 1.411749043551e+00 1.322478055954e-07
    9.756185909789e-01 2.204375000000e+02 6.332901267329e-01-8.048906697843e-09
   -2.817974522807e-10 1.000000000000e+00 2.162000000000e+03 0.000000000000e+00
    2.400000000000e+00 0.000000000000e+00 1.862645149231e-09 3.200000000000e+01
    3.744000000000e+05 4.000000000000e+00
22 21  6 17 10  0  0.0-5.863131955266e-04 9.663381206337e-12 0.000000000000e+00
    4.400000000000e+01-5.981250000000e+01 5.073425614255e-09-1.219248349468e+00
   -3.056600689888e-06 7.016079034656e-03 5.064532160759e-06 5.153810825348e+03
    3.816000000000e+05-1.098960638046e-07-2.876480507793e+00 0.000000000000e+00
    9.354723255373e-01 2.698125000000e+02-9.373910523171e-01-8.572142778440e-09
    1.042900583853e-10 1.000000000000e+00 2.162000000000e+03 0.000000000000e+00
    2.400000000000e+00 0.000000000000e+00-1.769512891769e-08 4.400000000000e+01
    3.744000000000e+05 4.000000000000e+00
32 21  6 17 10  0  0.0 1.815753057599e-05-1.477928890381e-12 0.000000000000e+00
    4.600000000000e+01-4.825000000000e+01 4.562690054355e-09 5.046756869109e-01
   -2.630054950714e-06 5.008858628571e-03 9.873881936073e-06 5.153684101105e+03
    3.816000000000e+05-8.009374141693e-08-1.736610325911e+00 9.126961231232e-08
    9.570134168216e-01 1.901562500000e+02-2.359392575405e+00-7.999618930524e-09
    1.457203555520e-10 1.000000000000e+00 2.162000000000e+03 0.000000000000e+00
    2.400000000000e+00 0.000000000000e+00 4.656612873077e-10 4.600000000000e+01
    3.744000000000e+05 4.000000000000e+00
21 21  6 17 10  0  0.0 1.255851238966e-04 2.501110429876e-12 0.000000000000e+00
    2.600000000000e+01 2.728125000000e+01 4.591619830825e-09-5.632205785692e-02
    1.473352313042e-06 2.403794648126e-02 5.938112735748e-06 5.153675270081e+03
    3.816000000000e+05-3.185123205185e-07 2.385538931340e+00-3.650784492493e-07
    9.574351424567e-01 2.708750000000e+02-1.125306585170e+00-8.607858551860e-09
    9.178953768839e-11 1.000000000000e+00 2.162000000000e+03 0.000000000000e+00
    2.400000000000e+00 0.000000000000e+00-1.024454832077e-08 2.600000000000e+01
    3.744000000000e+05 4.000000000000e+00
16 21  6 17 10  0  0.0-3.426498733461e-04-6.025402399246e-12 0.000000000000e+00
    9.700000000000e+01 3.593750000000e+00 4.581976572002e-09 7.019737896946e-01
    4.731118679047e-07 1.217913243454e-02 6.839632987976e-06 5.153708728790e+03
    3.816000000000e+05-3.539025783539e-08 4.550687829157e-01 1.024454832077e-07
    9.736846732578e-01 2.537500000000e+02 6.799501461043e-01-8.240700401106e-09
   -4.646622121891e-10 1.000000000000e+00 2.162000000000e+03 0.000000000000e+00
    3.400000000000e+00 0.000000000000e+00-1.024454832077e-08 9.700000000000e+01
    3.744000000000e+05 4.000000000000e+00
 9 21  6 17 10  0  0.0-3.515132702887e-04-1.818989403546e-12 0.000000000000e+00
    8.100000000000e+01-3.415625000000e+01 4.598762985509e-09 2.375400489194e-01
   -1.996755599976e-06 1.866620033979e-03 1.005455851555e-05 5.153766942978e+03
    3.816000000000e+05-7.450580596924e-09-1.746739383438e+00-1.117587089539e-08
    9.530532463789e-01 1.785937500000e+02 1.826502282386e+00-8.054264063856e-09
    1.732215010851e-10 1.000000000000e+00 2.162000000000e+03 0.000000000000e+00
    2.400000000000e+00 0.000000000000e+00 1.396983861923e-09 8.100000000000e+01
    3.744000000000e+05 4.000000000000e+00
